{"type":"FeatureCollection","features":[{"type":"Feature","properties":{"sgis_cd":"21","region":"부산"},"geometry":{"type":"MultiPolygon","coordinates":[[[[128.9535,35.062],[128.9541,35.0556],[128.9456,35.0619],[128.9502,35.0545],[128.9378,35.0543],[128.9469,35.0559],[128.945,35.0516],[128.9537,35.0532],[128.9564,35.0469],[128.9307,35.0491],[128.9243,35.0545],[128.9361,35.0505],[128.9302,35.0583],[128.9443,35.0745],[128.9535,35.062]]],[[[128.832,35.0874],[128.8338,35.0558],[128.842,35.0541],[128.8478,35.0625],[128.8365,35.067],[128.8375,35.0748],[128.8586,35.0641],[128.8458,35.0596],[128.8512,35.042],[128.8344,35.012],[128.8412,35.0066],[128.8404,34.9968],[128.8285,34.9886],[128.8301,34.9948],[128.8218,34.9946],[128.8182,35.0043],[128.8272,35.0136],[128.806,35.0213],[128.8149,35.0251],[128.8073,35.0328],[128.8124,35.0397],[128.7975,35.0492],[128.8033,35.0554],[128.791,35.0534],[128.7909,35.0614],[128.8324,35.0713],[128.8324,35.0776],[128.8115,35.0776],[128.8115,35.083],[128.832,35.0874]]],[[[129.0631,35.1034],[129.0591,35.1004],[129.0793,35.0884],[129.0775,35.0834],[129.0832,35.0858],[129.0842,35.0739],[129.096,35.0804],[129.08,35.0714],[129.0964,35.0598],[129.0876,35.0494],[129.0772,35.0604],[129.0648,35.0616],[129.0652,35.0688],[129.033,35.0847],[129.0314,35.0939],[129.0631,35.1034]]],[[[129.2121,35.3806],[129.2655,35.3871],[129.2831,35.3651],[129.2797,35.3414],[129.3034,35.3359],[129.3056,35.3239],[129.3042,35.3301],[129.3019,35.3202],[129.2915,35.3181],[129.2805,35.3265],[129.2619,35.3155],[129.2609,35.2831],[129.2535,35.2717],[129.2456,35.2724],[129.243,35.2637],[129.234,35.2622],[129.239,35.2574],[129.2521,35.2602],[129.2536,35.2468],[129.2447,35.2437],[129.2499,35.2408],[129.2431,35.2382],[129.2456,35.2309],[129.2345,35.216],[129.2273,35.2243],[129.222,35.2126],[129.2318,35.2013],[129.2234,35.185],[129.2162,35.1873],[129.2009,35.1794],[129.1944,35.1602],[129.1814,35.1547],[129.1642,35.159],[129.15,35.1514],[129.1533,35.158],[129.1463,35.1534],[129.1358,35.1627],[129.1311,35.1525],[129.1164,35.1504],[129.1178,35.1399],[129.1089,35.1328],[129.1178,35.1321],[129.1128,35.125],[129.1217,35.1354],[129.129,35.1182],[129.1241,35.0993],[129.1129,35.103],[129.1095,35.0913],[129.1106,35.1007],[129.1023,35.0945],[129.106,35.0914],[129.0996,35.0912],[129.093,35.1093],[129.0904,35.1036],[129.075,35.1036],[129.0652,35.1096],[129.073,35.1222],[129.0653,35.1229],[129.0643,35.1294],[129.0561,35.118],[129.0527,35.1257],[129.0487,35.1207],[129.0553,35.116],[129.0501,35.1176],[129.0525,35.113],[129.0377,35.0968],[129.0256,35.0952],[129.0261,35.0858],[129.0313,35.0861],[129.0169,35.0745],[129.0223,35.062],[129.0157,35.0533],[129.0085,35.0512],[129.012,35.0652],[129.0052,35.0844],[129.0012,35.0798],[128.9931,35.0839],[129.001,35.049],[129.007,35.049],[128.9965,35.0443],[128.9884,35.058],[128.9728,35.0569],[128.9837,35.054],[128.9828,35.0467],[128.9704,35.048],[128.9779,35.0399],[128.9656,35.0324],[128.9677,35.043],[128.9593,35.0486],[128.9645,35.0474],[128.9527,35.072],[128.9582,35.0731],[128.9526,35.0722],[128.9503,35.0818],[128.956,35.1064],[128.9484,35.1023],[128.9488,35.1071],[128.9431,35.0864],[128.9308,35.0736],[128.9389,35.1089],[128.9327,35.1101],[128.9302,35.0927],[128.9132,35.0876],[128.9124,35.0797],[128.8952,35.0789],[128.9056,35.1181],[128.8945,35.1218],[128.8842,35.0793],[128.8692,35.0814],[128.8708,35.0886],[128.8682,35.0832],[128.8387,35.0815],[128.8203,35.0964],[128.8416,35.1059],[128.843,35.1132],[128.833,35.1299],[128.8154,35.1326],[128.8021,35.1419],[128.7945,35.1585],[128.8275,35.1556],[128.8674,35.1677],[128.8729,35.1625],[128.8652,35.1582],[128.8757,35.1507],[128.8742,35.1586],[128.8819,35.1617],[128.8724,35.1723],[128.8809,35.1715],[128.8817,35.1822],[128.8704,35.2016],[128.879,35.21],[128.9097,35.2155],[128.905,35.2201],[128.9095,35.2231],[128.9201,35.2164],[128.944,35.2283],[128.9567,35.2253],[128.9897,35.2317],[128.9988,35.2381],[129.0135,35.2738],[129.0475,35.2742],[129.0584,35.2948],[129.0743,35.2908],[129.0884,35.3026],[129.1086,35.3046],[129.1346,35.3515],[129.1182,35.369],[129.1501,35.3639],[129.1761,35.3514],[129.1988,35.3665],[129.1936,35.3821],[129.1994,35.389],[129.2121,35.3806]],[[129.099,35.0941],[129.099,35.0937],[129.099,35.0933],[129.0991,35.0929],[129.0991,35.0925],[129.0992,35.0923],[129.0992,35.0922],[129.0992,35.0922],[129.0992,35.0922],[129.0992,35.0922],[129.0992,35.0922],[129.0992,35.092],[129.0992,35.0917],[129.0993,35.0917],[129.0995,35.0915],[129.0997,35.0914],[129.1,35.0914],[129.1014,35.0916],[129.1015,35.0916],[129.1015,35.0917],[129.1015,35.0917],[129.1016,35.0917],[129.1016,35.0917],[129.1016,35.0918],[129.1017,35.0918],[129.1017,35.0918],[129.1017,35.0919],[129.1017,35.0919],[129.1017,35.0919],[129.1017,35.092],[129.1017,35.0921],[129.1017,35.0921],[129.1017,35.0921],[129.1018,35.0921],[129.1018,35.0921],[129.1018,35.0922],[129.1018,35.0922],[129.1019,35.0922],[129.1019,35.0923],[129.1019,35.0923],[129.102,35.0923],[129.102,35.0923],[129.102,35.0923],[129.102,35.0924],[129.1021,35.0924],[129.1021,35.0924],[129.1021,35.0925],[129.1022,35.0925],[129.1022,35.0925],[129.1023,35.0926],[129.1023,35.0926],[129.1024,35.0926],[129.1024,35.0926],[129.1024,35.0927],[129.1025,35.0927],[129.1025,35.0927],[129.1026,35.0928],[129.1027,35.0928],[129.1027,35.0928],[129.1028,35.0928],[129.1028,35.0928],[129.1028,35.0929],[129.1029,35.0929],[129.1029,35.093],[129.1029,35.093],[129.1029,35.093],[129.103,35.0931],[129.103,35.0931],[129.103,35.0931],[129.103,35.0931],[129.103,35.0932],[129.1031,35.0932],[129.1031,35.0932],[129.1032,35.0933],[129.1032,35.0933],[129.1032,35.0933],[129.1033,35.0934],[129.1033,35.0934],[129.1029,35.0937],[129.1022,35.0943],[129.1019,35.0944],[129.1017,35.0945],[129.1016,35.0945],[129.1009,35.0947],[129.1,35.095],[129.0996,35.0951],[129.0994,35.0952],[129.0988,35.0954],[129.0988,35.0954],[129.0988,35.0954],[129.0988,35.0952],[129.0988,35.0952],[129.0988,35.0951],[129.0988,35.0951],[129.0989,35.095],[129.0989,35.0946],[129.099,35.0941]]]]}},{"type":"Feature","properties":{"sgis_cd":"22","region":"대구"},"geometry":{"type":"MultiPolygon","coordinates":[[[[128.4554,36.3269],[128.4912,36.304],[128.5428,36.2939],[128.5528,36.2746],[128.57,36.2747],[128.5758,36.2799],[128.5945,36.2777],[128.5994,36.2705],[128.6361,36.2615],[128.6414,36.2448],[128.6331,36.2387],[128.6372,36.228],[128.6318,36.2162],[128.6394,36.2075],[128.6598,36.2214],[128.6719,36.2082],[128.682,36.2152],[128.6942,36.214],[128.6999,36.2088],[128.6963,36.2022],[128.7043,36.199],[128.735,36.2007],[128.7459,36.1944],[128.758,36.2029],[128.77,36.1934],[128.7944,36.1907],[128.805,36.2103],[128.8266,36.2182],[128.8432,36.2162],[128.8832,36.1984],[128.8837,36.1839],[128.9002,36.1624],[128.8899,36.1425],[128.8586,36.145],[128.8506,36.1374],[128.851,36.1182],[128.8021,36.086],[128.789,36.0859],[128.7645,36.1007],[128.7509,36.0918],[128.745,36.1093],[128.7437,36.102],[128.7229,36.0903],[128.7269,36.0771],[128.714,36.0755],[128.7037,36.058],[128.6942,36.0182],[128.7269,36.0032],[128.7349,35.993],[128.731,35.9854],[128.7462,35.9729],[128.738,35.9559],[128.7441,35.944],[128.7367,35.9296],[128.7565,35.9135],[128.7627,35.8885],[128.7598,35.8661],[128.7508,35.8575],[128.7375,35.8512],[128.7219,35.8569],[128.7251,35.836],[128.7086,35.8266],[128.7175,35.8068],[128.6823,35.7898],[128.6955,35.7557],[128.6832,35.7215],[128.661,35.72],[128.6462,35.7082],[128.624,35.7023],[128.6139,35.7098],[128.6124,35.7385],[128.5942,35.7371],[128.5896,35.7315],[128.5824,35.7383],[128.5648,35.7368],[128.5279,35.7127],[128.5353,35.6941],[128.5318,35.6833],[128.5076,35.6729],[128.5062,35.6396],[128.4827,35.635],[128.4785,35.6405],[128.4465,35.6384],[128.431,35.6216],[128.4227,35.6251],[128.4102,35.6151],[128.4029,35.6173],[128.3778,35.6068],[128.3711,35.6102],[128.3884,35.6179],[128.4013,35.6327],[128.4,35.6456],[128.3623,35.6756],[128.3518,35.704],[128.3589,35.7087],[128.4122,35.6958],[128.4321,35.7049],[128.4318,35.7256],[128.3912,35.7484],[128.3835,35.7601],[128.4208,35.8094],[128.4704,35.8059],[128.483,35.818],[128.4812,35.8301],[128.45,35.8467],[128.3835,35.8528],[128.399,35.8999],[128.4071,35.9007],[128.4249,35.928],[128.4503,35.935],[128.4542,35.9431],[128.4764,35.9344],[128.4728,35.9144],[128.4654,35.9086],[128.4684,35.8995],[128.4753,35.8945],[128.4906,35.8976],[128.5022,35.8871],[128.5069,35.9061],[128.5337,35.9324],[128.5284,35.9804],[128.5435,35.9748],[128.5533,35.9608],[128.5571,35.9722],[128.6035,35.986],[128.6175,36.0067],[128.6407,36.0105],[128.6214,36.0252],[128.6327,36.0668],[128.6278,36.0802],[128.5979,36.075],[128.5945,36.0628],[128.5835,36.0679],[128.5691,36.0587],[128.564,36.1159],[128.5486,36.131],[128.5502,36.1506],[128.5401,36.1611],[128.5524,36.1649],[128.5569,36.1772],[128.5488,36.1778],[128.5366,36.1949],[128.5228,36.2014],[128.5029,36.1849],[128.4892,36.2203],[128.4795,36.2245],[128.4851,36.2336],[128.4409,36.2184],[128.434,36.2343],[128.4177,36.2459],[128.4162,36.2577],[128.4264,36.2754],[128.4135,36.2829],[128.4128,36.2937],[128.4385,36.3051],[128.438,36.314],[128.4554,36.3269]]]]}},{"type":"Feature","properties":{"sgis_cd":"33","region":"충북"},"geometry":{"type":"MultiPolygon","coordinates":[[[[127.9814,37.2569],[128.0183,37.2457],[128.023,37.2256],[128.0388,37.216],[128.0283,37.2023],[128.0387,37.1891],[128.0775,37.1937],[128.1087,37.2057],[128.1253,37.2345],[128.1645,37.2135],[128.1731,37.2191],[128.1741,37.2326],[128.2012,37.249],[128.2146,37.2461],[128.2292,37.2276],[128.2509,37.2296],[128.2684,37.2079],[128.3166,37.2234],[128.3334,37.2158],[128.3273,37.1983],[128.3134,37.1968],[128.3142,37.19],[128.2956,37.1833],[128.2981,37.1717],[128.2763,37.1727],[128.2644,37.1604],[128.2733,37.1476],[128.2962,37.1341],[128.3371,37.1579],[128.3515,37.1574],[128.3597,37.1502],[128.3644,37.1576],[128.3771,37.1517],[128.3844,37.1581],[128.4009,37.1469],[128.4037,37.1396],[128.396,37.1286],[128.4185,37.1198],[128.4247,37.1025],[128.4361,37.112],[128.4448,37.1063],[128.4508,37.1124],[128.4778,37.1102],[128.4966,37.1258],[128.5108,37.114],[128.5145,37.1014],[128.5312,37.1],[128.5368,37.0901],[128.5497,37.0862],[128.5617,37.0902],[128.5918,37.0782],[128.6016,37.0831],[128.6064,37.0767],[128.6226,37.0874],[128.6282,37.0752],[128.6519,37.0635],[128.6367,37.0524],[128.6329,37.0405],[128.6084,37.0528],[128.6068,37.0434],[128.5835,37.0437],[128.5777,37.0356],[128.5693,37.0349],[128.5713,37.0159],[128.5559,37.0057],[128.5547,36.9983],[128.5155,36.9868],[128.5067,36.9701],[128.4672,36.9515],[128.4604,36.934],[128.4416,36.9273],[128.4447,36.9137],[128.424,36.8765],[128.448,36.8644],[128.449,36.8478],[128.4211,36.8118],[128.3813,36.8139],[128.3641,36.8022],[128.3532,36.8125],[128.3165,36.8167],[128.3107,36.8285],[128.2866,36.845],[128.2824,36.8564],[128.2418,36.8723],[128.2347,36.8628],[128.237,36.8453],[128.2113,36.8469],[128.2154,36.812],[128.1531,36.8224],[128.1418,36.8333],[128.1346,36.8329],[128.1299,36.8251],[128.1099,36.8215],[128.1071,36.8073],[128.0901,36.7966],[128.0744,36.8128],[128.0596,36.8168],[128.055,36.7927],[128.0323,36.7476],[128.068,36.7222],[128.0704,36.7077],[128.049,36.708],[128.0148,36.7302],[128.0019,36.7173],[127.9868,36.7175],[127.9585,36.7368],[127.9495,36.7081],[127.9336,36.7065],[127.9289,36.6908],[127.8942,36.6949],[127.8743,36.682],[127.9004,36.6822],[127.913,36.6777],[127.9177,36.6679],[127.9296,36.6688],[127.9392,36.6471],[127.9324,36.6187],[127.9241,36.6155],[127.9262,36.603],[127.92,36.6011],[127.9086,36.6259],[127.8897,36.6293],[127.8797,36.6568],[127.8613,36.6356],[127.8468,36.634],[127.8498,36.6196],[127.8583,36.6135],[127.8407,36.6083],[127.821,36.6133],[127.7985,36.6021],[127.7985,36.5864],[127.8049,36.5814],[127.8245,36.5709],[127.8302,36.5743],[127.8604,36.568],[127.8703,36.5592],[127.876,36.5367],[127.9025,36.5281],[127.9063,36.5069],[127.8761,36.4884],[127.882,36.4618],[127.8714,36.4416],[127.873,36.4243],[127.8827,36.4222],[127.8733,36.4061],[127.8639,36.403],[127.8629,36.393],[127.8757,36.3906],[127.8842,36.38],[127.8798,36.3714],[127.8913,36.3597],[127.8826,36.3459],[127.8528,36.332],[127.8415,36.31],[127.851,36.2745],[127.8826,36.2738],[127.9043,36.3015],[127.9081,36.2855],[127.9309,36.278],[127.9602,36.2524],[127.9706,36.2504],[127.9811,36.2637],[128.0091,36.272],[128.0262,36.2679],[128.0474,36.2566],[128.0299,36.24],[128.0581,36.2012],[128.0386,36.1942],[128.024,36.2066],[128.0097,36.2094],[127.978,36.1981],[127.9826,36.1706],[127.9972,36.1555],[127.9875,36.1474],[127.9878,36.1288],[127.9668,36.1181],[127.9687,36.1031],[127.9585,36.0901],[127.9609,36.0703],[127.9472,36.0572],[127.9302,36.0494],[127.9163,36.0545],[127.9027,36.0391],[127.8848,36.0359],[127.8768,36.0225],[127.8661,36.0243],[127.8486,36.0397],[127.7994,36.0261],[127.7876,36.0145],[127.7651,36.0123],[127.7593,36.0152],[127.7616,36.0252],[127.7473,36.0297],[127.7415,36.0248],[127.7348,36.0323],[127.7019,36.0353],[127.689,36.0627],[127.6692,36.0512],[127.6727,36.0416],[127.6602,36.0385],[127.6544,36.0566],[127.6173,36.0936],[127.6191,36.1089],[127.5895,36.1343],[127.6017,36.16],[127.5931,36.1774],[127.5977,36.1849],[127.5925,36.1953],[127.5997,36.2051],[127.5978,36.2175],[127.5836,36.2313],[127.5702,36.2335],[127.5638,36.2275],[127.5453,36.2255],[127.5499,36.2384],[127.5379,36.2428],[127.5362,36.2512],[127.5181,36.2406],[127.4926,36.238],[127.486,36.2612],[127.499,36.2831],[127.4912,36.297],[127.499,36.3057],[127.4941,36.3121],[127.503,36.3256],[127.5006,36.3393],[127.5224,36.3543],[127.5249,36.3875],[127.5392,36.3979],[127.554,36.3949],[127.5588,36.3999],[127.5456,36.4088],[127.5423,36.4193],[127.5243,36.4234],[127.5145,36.4225],[127.5105,36.4096],[127.5016,36.4087],[127.4897,36.4341],[127.5045,36.4519],[127.4783,36.4573],[127.484,36.4766],[127.4703,36.4737],[127.4626,36.4561],[127.4513,36.4493],[127.4368,36.4564],[127.3997,36.4575],[127.4042,36.481],[127.3961,36.4917],[127.4108,36.4978],[127.409,36.5097],[127.3976,36.5206],[127.4086,36.5237],[127.405,36.5373],[127.3839,36.5415],[127.3725,36.5597],[127.3775,36.5678],[127.3381,36.5623],[127.3214,36.5838],[127.2996,36.5863],[127.3066,36.6009],[127.2922,36.6356],[127.2794,36.6335],[127.2757,36.6398],[127.2828,36.6423],[127.2892,36.6593],[127.301,36.662],[127.3076,36.682],[127.2857,36.692],[127.3084,36.7048],[127.3094,36.7246],[127.3283,36.7346],[127.3369,36.7293],[127.3425,36.7328],[127.3324,36.7475],[127.3355,36.7526],[127.3696,36.7616],[127.3864,36.7593],[127.4042,36.7449],[127.4204,36.7608],[127.413,36.7732],[127.3955,36.7825],[127.4012,36.7988],[127.3822,36.8138],[127.3608,36.8206],[127.3544,36.8295],[127.3345,36.8307],[127.3365,36.8546],[127.3073,36.8597],[127.3112,36.8803],[127.2878,36.8938],[127.3034,36.9164],[127.2956,36.9313],[127.309,36.9294],[127.3268,36.9359],[127.3496,36.9528],[127.3576,36.9477],[127.3757,36.9487],[127.3873,36.9645],[127.4015,36.9677],[127.385,36.9836],[127.3927,36.997],[127.4212,37.004],[127.4296,37.0012],[127.4408,37.0121],[127.4471,37.0108],[127.4497,37.0184],[127.4584,37.0205],[127.4569,37.0422],[127.4682,37.0535],[127.4862,37.0549],[127.5045,37.048],[127.5183,37.0584],[127.5568,37.0412],[127.5695,37.0482],[127.565,37.0606],[127.578,37.0753],[127.6052,37.0689],[127.5951,37.088],[127.6119,37.0873],[127.6345,37.0998],[127.6378,37.1412],[127.6283,37.1553],[127.6481,37.1506],[127.6702,37.1361],[127.6886,37.1355],[127.7067,37.1707],[127.7169,37.1834],[127.7264,37.1825],[127.7353,37.2081],[127.7441,37.2149],[127.7555,37.1714],[127.7895,37.1434],[127.8474,37.1529],[127.8532,37.1603],[127.8613,37.1553],[127.872,37.1643],[127.8906,37.1592],[127.8989,37.1498],[127.9086,37.1671],[127.9238,37.1636],[127.9336,37.1758],[127.9325,37.207],[127.9219,37.2258],[127.9389,37.2407],[127.9814,37.2569]]]]}},{"type":"Feature","properties":{"sgis_cd":"39","region":"제주"},"geometry":{"type":"MultiPolygon","coordinates":[[[[126.9545,33.5259],[126.9625,33.5194],[126.9588,33.5128],[126.9727,33.5147],[126.9651,33.5132],[126.9713,33.4988],[126.9642,33.4892],[126.9431,33.495],[126.9397,33.5085],[126.9545,33.5259]]],[[[126.7791,33.5661],[126.7981,33.5553],[126.8141,33.562],[126.8276,33.5594],[126.8287,33.5431],[126.8416,33.5381],[126.8409,33.5336],[126.8581,33.5306],[126.8581,33.5253],[126.8795,33.5317],[126.9064,33.5207],[126.899,33.5112],[126.9131,33.5073],[126.9138,33.4962],[126.9022,33.4813],[126.9141,33.4794],[126.9116,33.4739],[126.9204,33.4694],[126.9277,33.4758],[126.9208,33.4647],[126.9233,33.4555],[126.936,33.4785],[126.9365,33.4642],[126.9469,33.4568],[126.9344,33.4608],[126.9251,33.4529],[126.9223,33.4396],[126.935,33.4268],[126.9294,33.4226],[126.9226,33.4266],[126.9239,33.4343],[126.9161,33.4339],[126.9197,33.4273],[126.9027,33.4019],[126.9065,33.3912],[126.8816,33.3833],[126.8713,33.3721],[126.8685,33.3534],[126.8566,33.3381],[126.844,33.3328],[126.8484,33.3195],[126.835,33.308],[126.8162,33.3076],[126.8078,33.3018],[126.8056,33.3061],[126.8043,33.3022],[126.7778,33.3068],[126.766,33.2984],[126.7662,33.2912],[126.7523,33.2842],[126.75,33.2874],[126.743,33.2776],[126.7333,33.2816],[126.677,33.2668],[126.6689,33.2712],[126.6597,33.2664],[126.6641,33.2698],[126.6582,33.2739],[126.6609,33.2684],[126.6439,33.2669],[126.6402,33.257],[126.5995,33.2343],[126.5778,33.2448],[126.5688,33.243],[126.5676,33.2327],[126.5603,33.2424],[126.5657,33.2318],[126.5508,33.2413],[126.5209,33.2409],[126.5086,33.2297],[126.4913,33.2325],[126.4908,33.2258],[126.4905,33.2302],[126.4795,33.2266],[126.4947,33.2222],[126.4833,33.2219],[126.4757,33.228],[126.4713,33.2238],[126.4573,33.2413],[126.4327,33.2334],[126.4086,33.2446],[126.3667,33.2289],[126.3618,33.2371],[126.3262,33.2317],[126.3354,33.2348],[126.3277,33.2408],[126.2979,33.2227],[126.2903,33.2054],[126.2946,33.1968],[126.2849,33.2005],[126.2722,33.1941],[126.2627,33.1975],[126.2632,33.2094],[126.2565,33.2074],[126.2504,33.2202],[126.2494,33.2124],[126.2285,33.2412],[126.202,33.2456],[126.169,33.275],[126.1605,33.2921],[126.1674,33.2989],[126.1615,33.3341],[126.1668,33.343],[126.1786,33.3455],[126.178,33.3496],[126.1821,33.3454],[126.1799,33.3577],[126.205,33.3684],[126.222,33.391],[126.2346,33.3894],[126.2501,33.401],[126.2508,33.4084],[126.2587,33.4094],[126.2529,33.4158],[126.2629,33.4164],[126.2606,33.4231],[126.2517,33.4171],[126.2642,33.4237],[126.2631,33.4368],[126.2734,33.4348],[126.2772,33.4452],[126.2999,33.4473],[126.3125,33.4697],[126.3204,33.4676],[126.3249,33.4734],[126.3295,33.4718],[126.3209,33.4655],[126.3277,33.4698],[126.3381,33.467],[126.3855,33.4894],[126.4006,33.4834],[126.4252,33.4956],[126.4516,33.4973],[126.4536,33.5044],[126.4828,33.5107],[126.4938,33.5211],[126.5143,33.5158],[126.5301,33.523],[126.5319,33.5174],[126.5411,33.5332],[126.5353,33.5198],[126.5428,33.5229],[126.5416,33.5296],[126.5534,33.5242],[126.5449,33.5222],[126.5508,33.5205],[126.5615,33.5277],[126.585,33.5254],[126.5975,33.5377],[126.6261,33.5362],[126.6279,33.5407],[126.6345,33.536],[126.6327,33.5422],[126.6446,33.5558],[126.6481,33.549],[126.6529,33.5528],[126.6671,33.5428],[126.6779,33.5525],[126.684,33.5482],[126.7162,33.5536],[126.7297,33.5626],[126.7359,33.558],[126.7411,33.5612],[126.7381,33.5548],[126.7455,33.5557],[126.7402,33.5602],[126.7572,33.557],[126.7621,33.5655],[126.7746,33.5654],[126.7747,33.5611],[126.7791,33.5661]]],[[[126.3372,33.9569],[126.342,33.9466],[126.3304,33.9445],[126.33,33.9383],[126.3273,33.9449],[126.3236,33.9388],[126.3308,33.9308],[126.3214,33.9301],[126.3037,33.9527],[126.326,33.9515],[126.3372,33.9569]]]]}}]}
