{"type":"FeatureCollection","crs":{"type":"name","properties":{"name":"urn:ogc:def:crs:EPSG::5179"}},"features":[{"type":"Feature","properties":{"sgis_cd":"21","name":"부산"},"geometry":{"type":"MultiPolygon","coordinates":[[[[1132536.4,1675068.6],[1132605.4,1674363.1],[1131815.9,1675045.1],[1132247.8,1674232.3],[1131121.2,1674196.6],[1131944.0,1674389.3],[1131777.5,1673899.4],[1132574.3,1674089.8],[1132824.0,1673393.3],[1130477.5,1673607.3],[1129890.2,1674197.9],[1130970.6,1673772.4],[1130420.9,1674631.7],[1131678.6,1676448.5],[1132536.4,1675068.6]]],[[[1121424.0,1677727.6],[1121632.7,1674232.8],[1122386.9,1674051.9],[1122896.8,1674989.2],[1121864.1,1675472.4],[1121943.1,1676341.4],[1123885.8,1675178.1],[1122718.8,1674670.4],[1123239.9,1672725.0],[1121749.3,1669371.7],[1122377.3,1668784.0],[1122319.9,1667695.7],[1121251.3,1666772.1],[1121381.7,1667463.3],[1120628.7,1667427.4],[1120282.9,1668502.7],[1121095.7,1669543.1],[1119144.7,1670365.4],[1119952.7,1670801.0],[1119249.3,1671648.4],[1119706.4,1672417.3],[1118331.8,1673451.4],[1118853.7,1674142.7],[1117728.6,1673912.5],[1117713.2,1674801.1],[1121480.8,1675948.3],[1121470.7,1676647.0],[1119568.4,1676618.5],[1119559.4,1677217.8],[1121424.0,1677727.6]]],[[[1142462.9,1679808.4],[1142105.1,1679473.8],[1143966.2,1678167.9],[1143813.2,1677620.3],[1144326.0,1677885.1],[1144439.7,1676568.9],[1145501.9,1677304.8],[1144056.3,1676286.3],[1145577.1,1675022.9],[1144791.8,1673860.9],[1143823.3,1675065.5],[1142685.4,1675180.7],[1142712.6,1675973.8],[1139749.6,1677701.1],[1139592.1,1678717.7],[1142462.9,1679808.4]]],[[[1155515.3,1710786.3],[1160352.8,1711593.2],[1161995.5,1709182.1],[1161728.5,1706539.0],[1163894.2,1705968.8],[1164119.0,1704646.4],[1163985.7,1705327.2],[1163787.7,1704231.9],[1162847.0,1703972.3],[1161837.8,1704892.1],[1160166.1,1703645.5],[1160138.1,1700043.3],[1159488.6,1698774.0],[1158768.5,1698829.1],[1158549.7,1697862.3],[1157728.1,1697684.8],[1158193.9,1697157.0],[1159386.1,1697492.4],[1159545.2,1696008.3],[1158740.0,1695649.7],[1159220.7,1695335.5],[1158603.0,1695041.3],[1158845.6,1694233.6],[1157863.9,1692560.1],[1157191.7,1693468.2],[1156736.6,1692158.0],[1157649.4,1690924.9],[1156912.0,1689108.3],[1156252.9,1689350.4],[1154878.2,1688453.0],[1154322.0,1686309.7],[1153148.7,1685676.6],[1151571.1,1686126.2],[1150290.6,1685260.4],[1150578.3,1686004.8],[1149955.3,1685480.4],[1148983.5,1686497.1],[1148572.1,1685358.1],[1147233.0,1685098.4],[1147382.8,1683936.5],[1146585.3,1683144.8],[1147396.3,1683076.9],[1146954.5,1682275.3],[1147741.7,1683448.6],[1148439.8,1681547.3],[1148028.4,1679444.6],[1147001.9,1679838.8],[1146713.1,1678539.3],[1146796.7,1679578.9],[1146049.6,1678880.9],[1146392.7,1678546.5],[1145813.5,1678510.4],[1145173.3,1680507.1],[1144945.6,1679875.9],[1143545.4,1679854.4],[1142642.8,1680500.5],[1143335.3,1681909.9],[1142631.4,1681977.3],[1142525.0,1682697.0],[1141795.7,1681424.8],[1141473.8,1682271.9],[1141115.3,1681711.8],[1141731.4,1681201.1],[1141250.5,1681373.9],[1141480.0,1680857.8],[1140153.4,1679047.2],[1139057.1,1678845.6],[1139122.3,1677812.0],[1139596.7,1677848.5],[1138303.7,1676544.4],[1138816.9,1675162.5],[1138225.2,1674185.1],[1137573.4,1673949.2],[1137871.3,1675501.4],[1137219.6,1677627.9],[1136863.4,1677110.9],[1136110.5,1677556.9],[1136889.9,1673689.2],[1137438.6,1673695.3],[1136488.9,1673159.8],[1135725.7,1674669.0],[1134306.0,1674527.1],[1135309.4,1674219.4],[1135232.4,1673416.2],[1134103.3,1673539.8],[1134800.8,1672652.3],[1133690.5,1671807.1],[1133865.3,1672978.9],[1133089.5,1673586.0],[1133568.5,1673467.3],[1132445.5,1676178.6],[1132951.6,1676304.7],[1132440.2,1676201.3],[1132217.9,1677258.7],[1132698.5,1680001.6],[1132006.5,1679535.5],[1132039.5,1680068.6],[1131550.1,1677759.1],[1130447.8,1676324.1],[1131133.7,1680254.0],[1130567.8,1680382.1],[1130364.5,1678446.2],[1128825.4,1677860.3],[1128762.1,1676974.8],[1127200.0,1676869.5],[1128085.7,1681224.1],[1127067.2,1681624.7],[1126189.3,1676901.6],[1124826.4,1677108.1],[1124955.7,1677918.4],[1124731.1,1677312.8],[1122042.2,1677087.6],[1120346.1,1678717.9],[1122269.9,1679797.8],[1122382.4,1680602.1],[1121447.3,1682451.2],[1119838.1,1682728.6],[1118619.7,1683740.5],[1117902.2,1685576.6],[1120912.9,1685289.1],[1124525.2,1686683.2],[1125039.7,1686115.3],[1124338.9,1685623.6],[1125306.3,1684809.9],[1125156.9,1685679.5],[1125859.1,1686036.2],[1124970.6,1687195.1],[1125745.7,1687114.4],[1125804.7,1688308.1],[1124743.8,1690440.5],[1125516.7,1691387.0],[1128303.2,1692032.6],[1127870.4,1692538.1],[1128276.3,1692878.0],[1129251.4,1692152.7],[1131404.8,1693504.2],[1132565.5,1693180.2],[1135558.6,1693937.3],[1136376.2,1694660.3],[1137651.7,1698637.5],[1140744.8,1698735.8],[1141697.0,1701038.5],[1143150.4,1700609.5],[1144410.4,1701944.6],[1146244.4,1702192.3],[1148524.9,1707429.8],[1147001.8,1709355.6],[1149913.5,1708837.8],[1152301.0,1707487.0],[1154328.1,1709196.8],[1153828.9,1710918.2],[1154340.1,1711698.0],[1155515.3,1710786.3]],[[1145747.1,1678837.7],[1145751.4,1678792.7],[1145755.7,1678749.7],[1145760.2,1678705.0],[1145765.4,1678658.9],[1145768.6,1678628.9],[1145768.9,1678627.7],[1145769.6,1678626.8],[1145771.5,1678625.1],[1145772.3,1678623.7],[1145772.9,1678621.5],[1145775.2,1678598.3],[1145777.5,1678565.0],[1145778.2,1678562.6],[1145796.6,1678550.5],[1145823.6,1678532.9],[1145846.6,1678537.3],[1145969.7,1678561.1],[1145984.4,1678564.2],[1145985.5,1678565.5],[1145986.8,1678568.6],[1145989.7,1678571.4],[1145991.8,1678573.3],[1145994.6,1678576.7],[1145996.4,1678579.4],[1145998.5,1678583.0],[1146000.4,1678587.7],[1146000.9,1678592.2],[1146000.9,1678596.7],[1146000.9,1678603.0],[1146001.2,1678610.5],[1146002.1,1678612.8],[1146004.8,1678614.3],[1146010.5,1678616.3],[1146011.9,1678618.9],[1146012.7,1678621.9],[1146013.6,1678626.4],[1146015.0,1678631.0],[1146016.7,1678633.7],[1146020.5,1678636.4],[1146023.8,1678638.0],[1146027.3,1678640.6],[1146029.4,1678642.8],[1146031.6,1678646.2],[1146032.9,1678650.7],[1146033.9,1678653.8],[1146036.2,1678656.7],[1146040.8,1678659.6],[1146045.7,1678663.0],[1146051.0,1678666.0],[1146055.2,1678668.1],[1146060.2,1678670.6],[1146063.5,1678673.2],[1146067.5,1678677.6],[1146070.5,1678680.9],[1146074.4,1678685.4],[1146082.7,1678691.0],[1146087.6,1678692.9],[1146090.8,1678693.3],[1146096.9,1678694.6],[1146099.2,1678697.8],[1146101.1,1678701.3],[1146104.2,1678706.7],[1146107.1,1678712.0],[1146110.2,1678715.6],[1146112.2,1678718.6],[1146113.7,1678722.5],[1146112.8,1678726.1],[1146112.9,1678728.3],[1146115.7,1678731.0],[1146119.9,1678734.7],[1146123.8,1678739.2],[1146126.7,1678743.2],[1146131.4,1678748.4],[1146135.0,1678752.0],[1146139.0,1678755.8],[1146141.4,1678759.8],[1146140.4,1678764.4],[1146110.9,1678793.6],[1146038.6,1678864.2],[1146018.7,1678871.4],[1145993.3,1678880.3],[1145989.9,1678885.7],[1145926.6,1678906.7],[1145840.1,1678936.9],[1145804.4,1678949.4],[1145781.8,1678957.3],[1145732.4,1678976.0],[1145731.8,1678976.0],[1145731.8,1678975.8],[1145733.6,1678956.1],[1145734.1,1678951.0],[1145734.6,1678948.5],[1145735.1,1678946.0],[1145736.1,1678936.0],[1145741.5,1678889.1],[1145747.1,1678837.7]]]]}},{"type":"Feature","properties":{"sgis_cd":"22","name":"대구"},"geometry":{"type":"MultiPolygon","coordinates":[[[[1085756.1,1814814.4],[1088987.5,1812311.0],[1093636.5,1811234.9],[1094553.6,1809100.9],[1096099.0,1809128.8],[1096618.3,1809719.6],[1098299.6,1809492.8],[1098750.4,1808695.8],[1102060.3,1807737.5],[1102552.1,1805890.4],[1101819.3,1805200.3],[1102196.7,1804018.9],[1101730.7,1802708.9],[1102424.8,1801748.4],[1104235.2,1803311.6],[1105344.2,1801857.2],[1106240.9,1802655.5],[1107342.0,1802526.5],[1107859.4,1801964.5],[1107549.1,1801218.5],[1108269.5,1800882.5],[1111027.1,1801104.4],[1112018.2,1800420.0],[1113090.1,1801367.5],[1114181.0,1800334.8],[1116381.7,1800063.0],[1117304.0,1802247.1],[1119232.4,1803155.7],[1120729.7,1802950.8],[1124356.7,1801022.1],[1124423.9,1799417.8],[1125941.0,1797051.9],[1125042.6,1794836.7],[1122224.1,1795067.7],[1121521.1,1794220.9],[1121579.7,1792086.1],[1117229.6,1788453.6],[1116049.4,1788433.7],[1113826.0,1790038.0],[1112613.7,1789039.4],[1112057.7,1790975.2],[1111954.0,1790163.1],[1110096.7,1788838.4],[1110472.8,1787378.5],[1109316.6,1787187.8],[1108412.7,1785238.1],[1107604.4,1780813.0],[1110573.7,1779187.4],[1111307.2,1778057.1],[1110967.9,1777210.3],[1112359.2,1775842.0],[1111639.2,1773955.2],[1112208.6,1772632.7],[1111559.9,1771035.1],[1113375.9,1769265.0],[1113966.4,1766502.6],[1113736.9,1764012.0],[1112932.6,1763051.4],[1111740.7,1762332.0],[1110325.8,1762956.2],[1110643.6,1760641.7],[1109172.2,1759571.6],[1110001.7,1757392.9],[1106845.1,1755469.1],[1108080.1,1751701.1],[1107018.8,1747884.6],[1105012.1,1747704.7],[1103686.8,1746371.8],[1101684.7,1745696.7],[1100763.1,1746523.1],[1100593.0,1749702.4],[1098949.9,1749523.8],[1098536.8,1748901.1],[1097878.7,1749651.5],[1096284.6,1749459.8],[1092979.0,1746759.8],[1093666.6,1744693.9],[1093365.6,1743501.9],[1091183.3,1742317.1],[1091102.1,1738622.4],[1088977.0,1738094.4],[1088589.2,1738704.8],[1085692.6,1738441.9],[1084308.5,1736568.6],[1083557.1,1736947.5],[1082428.1,1735824.7],[1081771.0,1736063.6],[1079508.1,1734879.7],[1078900.0,1735253.2],[1080452.7,1736120.7],[1081603.7,1737772.9],[1081480.7,1739194.4],[1078036.8,1742493.3],[1077057.2,1745639.5],[1077693.3,1746164.8],[1082530.2,1744782.1],[1084325.2,1745803.1],[1084273.5,1748099.1],[1080581.4,1750588.8],[1079866.5,1751883.9],[1083192.6,1757379.6],[1087678.0,1757042.2],[1088795.6,1758393.7],[1088625.5,1759732.1],[1085788.1,1761542.2],[1079777.4,1762171.1],[1081125.9,1767407.1],[1081860.8,1767502.5],[1083436.0,1770547.3],[1085723.1,1771345.9],[1086058.7,1772248.5],[1088076.4,1771302.3],[1087768.1,1769080.2],[1087110.7,1768425.3],[1087389.6,1767416.4],[1088017.0,1766866.6],[1089398.7,1767226.7],[1090460.4,1766071.7],[1090859.7,1768187.2],[1093249.8,1771126.4],[1092707.6,1776442.8],[1094078.5,1775838.9],[1094982.1,1774294.4],[1095305.9,1775569.8],[1099475.7,1777145.0],[1100709.8,1779458.1],[1102798.9,1779901.4],[1101034.6,1781514.0],[1102002.9,1786141.0],[1101541.2,1787613.2],[1098857.4,1787005.5],[1098564.3,1785657.0],[1097568.2,1786207.1],[1096284.8,1785173.7],[1095757.3,1791508.0],[1094350.7,1793169.5],[1094472.0,1795353.5],[1093550.4,1796502.0],[1094651.4,1796937.4],[1095042.1,1798302.5],[1094317.3,1798365.2],[1093198.3,1800252.6],[1091946.9,1800959.5],[1090182.2,1799105.9],[1088903.2,1803020.0],[1088033.1,1803476.1],[1088519.8,1804492.2],[1084571.9,1802763.3],[1083930.7,1804530.7],[1082449.5,1805793.5],[1082304.2,1807104.6],[1083207.4,1809079.5],[1082039.1,1809897.6],[1081965.5,1811094.9],[1084261.1,1812383.2],[1084208.0,1813374.5],[1085756.1,1814814.4]]]]}},{"type":"Feature","properties":{"sgis_cd":"33","name":"충북"},"geometry":{"type":"MultiPolygon","coordinates":[[[[1042689.4,1917662.7],[1045963.8,1916441.6],[1046398.1,1914216.2],[1047800.5,1913159.4],[1046881.2,1911632.8],[1047808.3,1910172.9],[1051257.1,1910701.7],[1054013.7,1912046.8],[1055467.7,1915259.0],[1058957.5,1912944.0],[1059715.1,1913571.5],[1059795.8,1915074.3],[1062184.3,1916907.3],[1063381.3,1916595.0],[1064691.8,1914551.6],[1066614.2,1914790.3],[1068183.3,1912398.9],[1072444.1,1914151.6],[1073943.0,1913321.0],[1073418.1,1911372.9],[1072186.2,1911196.5],[1072264.2,1910445.1],[1070621.8,1909686.8],[1070850.1,1908398.5],[1068916.1,1908495.9],[1067874.4,1907126.5],[1068671.3,1905714.4],[1070721.8,1904231.2],[1074327.7,1906896.6],[1075608.6,1906859.2],[1076344.1,1906068.0],[1076754.6,1906894.0],[1077884.6,1906242.6],[1078523.7,1906964.6],[1080002.7,1905730.8],[1080258.1,1904928.0],[1079589.2,1903698.5],[1081594.7,1902743.6],[1082166.7,1900824.1],[1083172.8,1901891.1],[1083948.6,1901263.5],[1084478.1,1901944.9],[1086876.8,1901724.6],[1088524.4,1903476.6],[1089800.2,1902176.8],[1090144.6,1900782.1],[1091630.1,1900649.8],[1092145.8,1899559.3],[1093298.3,1899134.1],[1094355.8,1899594.9],[1097050.4,1898285.0],[1097913.0,1898838.8],[1098346.3,1898135.2],[1099775.6,1899342.7],[1100286.8,1897990.0],[1102405.8,1896721.3],[1101075.2,1895477.9],[1100751.5,1894150.4],[1098557.8,1895490.7],[1098423.4,1894444.1],[1096354.2,1894457.8],[1095849.4,1893545.9],[1095099.4,1893461.8],[1095299.3,1891361.3],[1093947.8,1890211.1],[1093849.4,1889387.1],[1090369.9,1888077.5],[1089611.1,1886212.0],[1086110.8,1884108.5],[1085527.1,1882167.1],[1083860.0,1881412.0],[1084156.1,1879899.9],[1082344.9,1875758.8],[1084499.8,1874433.1],[1084610.1,1872598.4],[1082162.3,1868576.5],[1078603.0,1868773.2],[1077082.3,1867465.1],[1076099.5,1868591.7],[1072819.3,1869030.3],[1072296.0,1870336.2],[1070127.0,1872155.3],[1069749.2,1873413.1],[1066116.8,1875151.3],[1065484.5,1874092.7],[1065710.5,1872154.7],[1063411.5,1872309.8],[1063807.6,1868441.2],[1058247.7,1869558.8],[1057227.9,1870761.2],[1056591.3,1870712.6],[1056172.5,1869845.9],[1054391.4,1869426.3],[1054152.0,1867853.8],[1052641.7,1866660.4],[1051235.6,1868446.6],[1049913.7,1868877.7],[1049513.7,1866200.8],[1047520.5,1861187.8],[1050720.8,1858394.9],[1050944.4,1856784.4],[1049036.8,1856806.8],[1045970.2,1859250.8],[1044825.6,1857809.9],[1043477.7,1857835.4],[1040931.8,1859963.3],[1040149.8,1856765.4],[1038725.2,1856585.4],[1038317.6,1854847.7],[1035213.4,1855286.5],[1033441.4,1853842.4],[1035770.9,1853878.9],[1036899.0,1853380.7],[1037327.3,1852293.7],[1038386.9,1852399.3],[1039259.1,1849995.7],[1038662.6,1846851.7],[1037923.1,1846483.1],[1038117.9,1845099.8],[1037561.0,1844891.7],[1036532.4,1847639.2],[1034837.4,1848011.8],[1033931.8,1851049.6],[1032299.0,1848691.4],[1031000.0,1848511.8],[1031279.2,1846914.4],[1032041.1,1846246.4],[1030468.7,1845659.7],[1028705.1,1846209.6],[1026694.2,1844957.4],[1026700.4,1843223.1],[1027276.5,1842664.1],[1029031.6,1841507.4],[1029539.4,1841882.7],[1032249.6,1841190.9],[1033139.1,1840218.4],[1033653.7,1837732.2],[1036029.8,1836782.0],[1036386.4,1834440.1],[1033686.4,1832368.6],[1034223.5,1829427.9],[1033285.2,1827176.1],[1033436.2,1825258.8],[1034308.1,1825028.3],[1033472.9,1823243.1],[1032626.7,1822899.7],[1032544.8,1821781.9],[1033695.3,1821522.9],[1034457.2,1820352.3],[1034070.1,1819393.6],[1035103.6,1818100.4],[1034332.3,1816569.6],[1031665.3,1815011.0],[1030655.8,1812572.1],[1031524.0,1808633.1],[1034366.5,1808564.9],[1036298.3,1811645.7],[1036649.0,1809878.6],[1038700.0,1809056.0],[1041341.4,1806223.9],[1042276.3,1806009.8],[1043219.9,1807490.6],[1045723.5,1808424.0],[1047266.7,1807976.1],[1049171.5,1806728.2],[1047613.9,1804885.1],[1050176.5,1800599.2],[1048426.7,1799803.2],[1047107.8,1801181.5],[1045820.8,1801475.6],[1042974.6,1800213.0],[1043401.7,1797159.1],[1044723.3,1795491.7],[1043853.9,1794590.7],[1043891.4,1792531.6],[1042008.5,1791329.1],[1042186.7,1789673.7],[1041274.0,1788228.9],[1041500.7,1786033.4],[1040275.1,1784568.0],[1038746.8,1783702.6],[1037498.0,1784254.6],[1036276.0,1782545.6],[1034668.8,1782182.6],[1033948.2,1780696.0],[1032989.9,1780889.6],[1031400.4,1782596.1],[1026979.1,1781066.0],[1025917.7,1779780.4],[1023884.9,1779529.9],[1023364.2,1779851.7],[1023570.4,1780957.8],[1022280.7,1781456.0],[1021757.7,1780911.2],[1021156.5,1781743.6],[1018191.0,1782064.4],[1017022.0,1785101.2],[1015236.9,1783820.4],[1015560.1,1782764.6],[1014434.0,1782420.1],[1013909.3,1784424.2],[1010557.2,1788519.1],[1010719.0,1790217.1],[1008051.0,1793032.8],[1009144.2,1795887.5],[1008368.5,1797811.5],[1008786.7,1798642.7],[1008312.8,1799804.9],[1008958.6,1800886.0],[1008788.3,1802262.2],[1007511.0,1803791.3],[1006311.9,1804037.4],[1005734.4,1803371.5],[1004073.9,1803147.6],[1004480.3,1804579.9],[1003407.0,1805062.2],[1003256.1,1805999.8],[1001629.0,1804824.7],[999333.0,1804526.6],[998746.7,1807110.4],[999909.0,1809532.3],[999207.8,1811078.5],[999908.1,1812037.9],[999470.2,1812751.2],[1000265.6,1814250.0],[1000050.1,1815767.2],[1002009.4,1817434.6],[1002236.2,1821115.3],[1003517.1,1822268.5],[1004844.7,1821933.2],[1005270.8,1822486.4],[1004086.2,1823479.9],[1003790.4,1824640.1],[1002180.1,1825100.2],[1001300.8,1824993.7],[1000938.3,1823570.0],[1000139.4,1823460.7],[999078.7,1826286.1],[1000399.3,1828257.3],[998053.7,1828854.7],[998569.6,1830999.5],[997338.1,1830672.1],[996645.0,1828727.2],[995638.6,1827965.1],[994334.2,1828758.8],[991015.1,1828887.8],[991415.1,1831488.5],[990696.1,1832679.8],[992011.8,1833347.4],[991855.4,1834678.2],[990835.1,1835880.6],[991817.2,1836224.9],[991497.5,1837736.0],[989606.8,1838206.3],[988594.7,1840225.5],[989043.4,1841123.9],[985511.3,1840520.7],[984026.2,1842901.1],[982069.6,1843187.6],[982702.7,1844807.0],[981419.2,1848659.1],[980277.8,1848426.2],[979944.5,1849124.2],[980582.3,1849399.0],[981156.9,1851286.6],[982217.0,1851586.7],[982812.2,1853801.3],[980852.7,1854911.4],[982886.3,1856328.4],[982983.3,1858521.5],[984670.1,1859625.1],[985436.3,1859045.8],[985934.6,1859430.8],[985038.0,1861061.0],[985316.9,1861630.3],[988360.1,1862616.6],[989858.0,1862360.7],[991447.5,1860757.7],[992896.9,1862529.8],[992231.7,1863903.5],[990675.3,1864932.4],[991184.4,1866737.1],[989489.3,1868403.1],[987581.2,1869160.0],[987020.2,1870150.6],[985245.3,1870285.7],[985428.5,1872942.9],[982822.6,1873511.3],[983176.1,1875800.2],[981095.6,1877295.0],[982485.0,1879800.4],[981799.9,1881454.3],[982989.4,1881241.2],[984577.5,1881964.6],[986612.4,1883831.2],[987322.2,1883263.7],[988929.1,1883369.2],[989964.8,1885121.1],[991235.2,1885476.3],[989763.1,1887248.3],[990452.5,1888731.1],[992992.5,1889499.5],[993733.6,1889197.7],[994736.5,1890402.0],[995292.6,1890260.1],[995528.9,1891097.5],[996296.8,1891329.4],[996163.4,1893741.1],[997173.6,1894991.3],[998774.7,1895142.8],[1000404.0,1894382.6],[1001623.6,1895535.7],[1005054.2,1893634.5],[1006183.7,1894403.3],[1005775.1,1895780.8],[1006931.2,1897418.1],[1009350.4,1896702.7],[1008451.9,1898822.5],[1009948.9,1898742.7],[1011954.4,1900140.5],[1012235.3,1904729.1],[1011393.7,1906291.7],[1013150.3,1905774.9],[1015117.8,1904170.0],[1016750.4,1904110.1],[1018354.6,1908013.4],[1019252.8,1909428.1],[1020096.5,1909331.5],[1020875.0,1912165.2],[1021660.5,1912920.9],[1022684.7,1908106.7],[1025712.2,1905005.5],[1030847.6,1906079.7],[1031362.6,1906896.6],[1032081.5,1906352.0],[1033032.2,1907353.6],[1034678.6,1906790.6],[1035422.4,1905750.3],[1036278.9,1907675.4],[1037630.9,1907293.9],[1038493.4,1908648.0],[1038375.3,1912107.4],[1037429.1,1914194.2],[1038926.6,1915854.5],[1042689.4,1917662.7]]]]}},{"type":"Feature","properties":{"sgis_cd":"39","name":"제주"},"geometry":{"type":"MultiPolygon","coordinates":[[[[949346.3,1503913.9],[950082.3,1503179.3],[949736.9,1502451.5],[951025.0,1502653.1],[950320.5,1502498.3],[950891.8,1500892.6],[950229.4,1499833.3],[948267.7,1500486.5],[947960.5,1501985.4],[949346.3,1503913.9]]],[[[933090.6,1508462.8],[934840.4,1507256.9],[936336.1,1507990.3],[937583.4,1507692.7],[937677.9,1505882.1],[938875.1,1505322.5],[938801.7,1504820.3],[940393.1,1504480.7],[940395.9,1503898.2],[942382.1,1504589.8],[944875.9,1503357.4],[944184.3,1502304.7],[945486.6,1501863.9],[945544.4,1500640.9],[944463.8,1498992.8],[945569.5,1498774.4],[945329.8,1498166.6],[946148.8,1497663.8],[946826.7,1498367.1],[946177.9,1497140.9],[946403.8,1496122.7],[947596.5,1498657.3],[947641.5,1497074.8],[948599.2,1496254.2],[947439.6,1496701.5],[946570.1,1495834.4],[946301.5,1494361.1],[947478.8,1492927.2],[946950.2,1492467.3],[946319.1,1492910.6],[946447.1,1493766.3],[945723.4,1493732.7],[946057.1,1492990.8],[944460.6,1490190.8],[944803.0,1489003.7],[942482.9,1488139.2],[941512.2,1486902.9],[941240.5,1484832.4],[940123.8,1483134.7],[938954.4,1482563.1],[939353.4,1481085.9],[938095.5,1479818.4],[936344.3,1479786.0],[935554.0,1479146.7],[935352.4,1479620.5],[935235.1,1479185.2],[932770.0,1479712.0],[931663.7,1478797.5],[931680.1,1477993.7],[930381.4,1477223.0],[930162.2,1477586.7],[929503.5,1476504.1],[928604.5,1476953.8],[923349.3,1475353.5],[922597.8,1475845.8],[921741.7,1475321.4],[922154.4,1475694.4],[921604.5,1476150.7],[921851.6,1475539.1],[920268.1,1475392.4],[919913.5,1474294.7],[916096.8,1471804.5],[914092.4,1472994.0],[913250.5,1472797.8],[913127.1,1471653.1],[912457.6,1472742.2],[912948.6,1471554.0],[911573.5,1472621.5],[908783.3,1472607.9],[907628.7,1471378.6],[906018.3,1471701.1],[905964.2,1470953.0],[905936.2,1471449.7],[904914.3,1471052.1],[906324.0,1470558.5],[905261.6,1470530.4],[904555.4,1471216.7],[904140.5,1470750.1],[902860.1,1472711.0],[900559.7,1471851.4],[898323.8,1473114.5],[894401.1,1471423.2],[893952.3,1472338.8],[890631.9,1471771.3],[891498.6,1472108.1],[890787.1,1472779.3],[887988.1,1470799.7],[887250.4,1468892.6],[887646.7,1467934.0],[886743.2,1468360.1],[885547.6,1467658.0],[884672.0,1468047.1],[884736.0,1469369.9],[884104.2,1469151.6],[883554.4,1470583.5],[883447.6,1469717.5],[881538.4,1472930.7],[879081.0,1473446.7],[876044.5,1476752.9],[875276.2,1478650.1],[875933.8,1479405.0],[875433.4,1483311.9],[875934.4,1484286.5],[877034.7,1484554.9],[876985.2,1485015.1],[877360.3,1484541.6],[877178.6,1485909.2],[879527.1,1487060.1],[881137.0,1489550.1],[882305.6,1489360.6],[883770.1,1490626.7],[883841.5,1491443.5],[884573.3,1491543.0],[884050.3,1492260.8],[884979.9,1492320.1],[884769.1,1493069.5],[883935.3,1492406.2],[885109.7,1493126.2],[885023.6,1494585.4],[885976.8,1494352.0],[886343.7,1495498.8],[888453.0,1495704.0],[889656.4,1498171.7],[890390.1,1497935.7],[890810.7,1498575.8],[891235.9,1498390.6],[890429.9,1497703.5],[891069.2,1498173.3],[892030.8,1497852.6],[896464.6,1500280.1],[897864.2,1499600.7],[900163.1,1500938.0],[902610.5,1501097.9],[902805.4,1501885.4],[905530.6,1502557.5],[906563.9,1503695.2],[908459.1,1503089.6],[909936.3,1503872.3],[910092.5,1503255.8],[910963.4,1504996.9],[910410.8,1503516.8],[911115.6,1503851.9],[911008.4,1504598.1],[912101.0,1503990.3],[911301.6,1503774.0],[911853.1,1503580.7],[912854.8,1504374.2],[915035.4,1504100.5],[916206.7,1505452.5],[918863.7,1505263.7],[919029.5,1505754.0],[919640.3,1505235.5],[919475.8,1505919.4],[920593.4,1507423.3],[920913.2,1506667.1],[921363.5,1507080.2],[922673.2,1505962.9],[923687.5,1507026.0],[924250.8,1506545.8],[927243.4,1507117.6],[928497.9,1508105.2],[929073.5,1507599.1],[929555.3,1507946.5],[929278.8,1507234.4],[929962.7,1507329.4],[929477.3,1507837.0],[931052.7,1507469.0],[931513.3,1508413.1],[932670.9,1508386.2],[932675.2,1507915.9],[933090.6,1508462.8]]],[[[892557.5,1552172.5],[892994.2,1551027.4],[891919.8,1550806.2],[891870.6,1550120.0],[891629.3,1550851.0],[891283.8,1550178.5],[891937.2,1549281.3],[891067.6,1549213.8],[889460.0,1551740.5],[891519.7,1551588.8],[892557.5,1552172.5]]]]}}]}
